{"type":"FeatureCollection","features":[{"type":"Feature","properties":{"_manaName":"Nilo","name":"Nilo","_manaColor":"#0D47A1","_manaFillOpacity":0.85,"_manaWeight":3,"_manaBorderColor":"#FFFFFF","_manaGroupName":"Ríos","_manaGroupId":"rios","_manaLabelStyle":{"fontSize":11,"fontFamily":"Arial, sans-serif","fontWeight":"bold","color":"#0D47A1","haloWidth":3,"haloColor":"#FFFFFF","placement":"line"},"Longitud (km)":6650,"Nacimiento":"Lago Victoria, África Oriental","Desembocadura":"Mar Mediterráneo, Egipto","Países":"Uganda, Sudán, Sudán del Sur, Egipto","Continente":"África","Description":"Nilo — 6650 km — África","_manaGeometryType":"line"},"geometry":{"type":"LineString","coordinates":[[32.8795,23.9877],[32.9087,23.8085],[32.9029,23.6963],[32.8718,23.5914],[32.8779,23.4809],[32.9026,23.4145],[32.9141,23.3319],[32.8551,23.2077],[32.6799,23.0094],[32.5869,22.8757],[32.5761,22.8064],[32.5142,22.7402],[32.4183,22.6715],[32.3263,22.6529],[32.2319,22.7181],[32.1371,22.7335],[32.0417,22.6991],[31.9607,22.6299],[31.8941,22.5258],[31.7354,22.3954],[31.5444,22.2515],[31.4,22.0931],[31.3623,21.9798],[31.2802,21.8446],[31.0906,21.6092],[32.4901,15.6345],[32.5354,16.0404],[32.6285,16.2565],[32.7846,16.4181],[32.9287,16.508],[33.0606,16.526],[33.1647,16.5662],[33.2406,16.6284],[33.3587,16.6859],[33.5188,16.7384],[33.6346,16.8245],[33.706,16.9441],[33.7318,17.0289],[33.7118,17.0789],[33.7146,17.1513],[33.7401,17.2461],[33.8102,17.3789],[33.925,17.5496],[33.9519,17.6985],[33.9688,17.7924],[33.9416,18.1073],[33.9004,18.2781],[33.8451,18.3047],[33.7844,18.3638],[33.7182,18.4552],[33.6819,18.5546],[33.6754,18.6619],[33.645,18.7239],[33.5905,18.7408],[33.5668,18.8473],[33.5737,19.0434],[33.5391,19.1734],[33.4629,19.2372],[33.4135,19.3076],[33.3797,19.4231],[33.1383,19.5027],[33.018,19.5108],[32.9385,19.4739],[32.8382,19.3829],[32.7172,19.2377],[32.6197,19.1607],[32.5456,19.1519],[32.4676,19.083],[32.3854,18.9539],[32.3063,18.8899],[32.2302,18.8911],[32.1532,18.865],[32.0756,18.8115],[32.0392,18.7434],[32.0441,18.6606],[32.0046,18.6063],[31.9208,18.5802],[31.8,18.4524],[31.642,18.2229],[31.4741,18.0772],[31.2963,18.0153],[31.1459,18.0017],[31.023,18.0365],[30.9106,18.0871],[30.8087,18.1536],[30.744,18.257],[30.7165,18.3973],[30.6738,18.499],[30.6158,18.562],[30.5615,18.6602],[30.5108,18.7937],[30.4862,18.988],[30.4879,19.2431],[30.4579,19.4711],[30.3964,19.6722],[30.35,19.7864],[30.3477,19.8218],[30.3698,19.8569],[30.4998,19.9141],[30.575,19.9673],[30.5943,20.0158],[30.5997,20.0981],[30.5911,20.2142],[30.5709,20.291],[30.5391,20.3285],[30.4895,20.351],[30.4221,20.3582],[30.366,20.4169],[30.3212,20.527],[30.3166,20.6158],[30.3523,20.6834],[30.3627,20.7348],[30.3698,20.7743],[30.3971,20.805],[30.5104,20.8402],[30.5763,20.9003],[30.5948,20.9852],[30.6315,21.0438],[30.6868,21.0762],[30.7092,21.1206],[30.6986,21.177],[30.7631,21.2491],[30.9027,21.337],[30.9699,21.3991],[30.9646,21.4355],[30.9941,21.4926],[31.0906,21.6092],[32.8795,23.9877],[32.9131,24.3284],[32.9126,24.454],[32.8894,24.4779],[32.8919,24.5396],[32.9199,24.6389],[32.921,24.7702],[32.895,24.9334],[32.8706,25.0375],[32.8476,25.0824],[32.767,25.1495],[32.6287,25.2386],[32.5404,25.3498],[32.502,25.4831],[32.4929,25.5654],[32.5232,25.612],[32.7041,25.7543],[32.764,25.8792],[32.7632,26.0342],[32.7344,26.1288],[32.6776,26.1633],[32.5534,26.1428],[32.3617,26.0674],[32.2287,26.0769],[32.1542,26.1712],[32.0939,26.1894],[32.0413,26.19],[32.0152,26.2001],[31.9969,26.2467],[31.9655,26.2974],[31.8714,26.3747],[31.8203,26.4453],[31.8123,26.5093],[31.7822,26.5419],[31.73,26.5431],[31.7065,26.5642],[31.7117,26.6051],[31.6947,26.6317],[31.6553,26.6437],[31.5526,26.762],[31.3692,27.0099],[31.3407,27.0571],[31.3035,27.0986],[31.2784,27.1227],[31.2449,27.1436],[30.9693,27.3555],[30.8683,27.5003],[30.8891,27.6185],[30.8839,27.7677],[30.8775,27.9017],[30.863,27.9852],[30.8374,28.0377],[30.8073,28.0854],[30.774,28.1199],[30.7443,28.1655],[30.74,28.2299],[30.7622,28.3086],[30.8109,28.4014],[30.8357,28.4925],[30.8369,28.582],[30.8579,28.6816],[30.8987,28.7915],[30.9946,28.943],[31.1455,29.1364],[31.2191,29.282],[31.2154,29.3798],[31.2361,29.4887],[31.281,29.6088],[31.2869,29.7826],[31.2554,29.999],[31.2538,30.0802],[31.2376,30.1207],[31.2376,30.1207]]}},{"type":"Feature","properties":{"_manaName":"Amazonas","name":"Amazonas","_manaColor":"#1565C0","_manaFillOpacity":0.85,"_manaWeight":3,"_manaBorderColor":"#FFFFFF","_manaGroupName":"Ríos","_manaGroupId":"rios","_manaLabelStyle":{"fontSize":11,"fontFamily":"Arial, sans-serif","fontWeight":"bold","color":"#0D47A1","haloWidth":3,"haloColor":"#FFFFFF","placement":"line"},"Longitud (km)":6400,"Nacimiento":"Nevado Mismi, Perú","Desembocadura":"Océano Atlántico, Brasil","Países":"Perú, Colombia, Brasil","Continente":"Sudamérica","Description":"Amazonas — 6400 km — Sudamérica","_manaGeometryType":"line"},"geometry":{"type":"LineString","coordinates":[[-52.6642,-1.5518],[-52.8736,-1.6111],[-53,-1.6681],[-53.1449,-1.7639],[-53.3578,-1.8384],[-53.6389,-1.8915],[-53.8433,-1.9581],[-53.9711,-2.0383],[-54.0447,-2.1412],[-54.0642,-2.267],[-54.1867,-2.3575],[-54.4677,-2.4402],[-54.5251,-2.4403],[-54.5641,-2.4405],[-54.639,-2.4193],[-54.6762,-2.3593],[-54.6746,-2.2534],[-54.6938,-2.1841],[-54.7339,-2.1517],[-54.7935,-2.1198],[-54.8726,-2.0886],[-54.9566,-2.1042],[-55.0456,-2.1667],[-55.1497,-2.1803],[-55.269,-2.1448],[-55.3752,-2.0827],[-55.4581,-1.9868],[-55.5148,-1.9495],[-55.5548,-1.924],[-55.6059,-1.9184],[-55.6694,-1.9265],[-55.7357,-1.9635],[-55.8397,-1.99],[-55.9813,-2.0057],[-56.1295,-2.0795],[-56.2841,-2.2116],[-56.4009,-2.3363],[-56.4797,-2.4536],[-56.5485,-2.5269],[-56.6072,-2.5564],[-56.6763,-2.5747],[-56.7558,-2.582],[-56.8474,-2.5665],[-56.951,-2.5282],[-57.0497,-2.5232],[-57.1433,-2.5514],[-57.2444,-2.5264],[-57.353,-2.4483],[-57.44,-2.4047],[-57.5055,-2.3957],[-57.6054,-2.4813],[-57.7398,-2.6618],[-57.8828,-2.784],[-58.0347,-2.8476],[-58.135,-2.9586],[-58.1837,-3.1169],[-58.235,-3.2],[-58.2681,-3.2143],[-58.3159,-3.2118],[-58.3802,-3.2022],[-58.4526,-3.1815],[-58.5493,-3.2052],[-58.6423,-3.304],[-58.689,-3.3423],[-58.8051,-3.3471],[-58.8899,-3.3226],[-58.9822,-3.2705],[-59.0913,-3.2389],[-59.2173,-3.2278],[-59.3815,-3.1842],[-59.5836,-3.1086],[-59.7354,-3.0779],[-59.8368,-3.0922],[-59.8968,-3.1276],[-59.9056,-3.1714],[-59.9245,-3.206],[-59.9575,-3.2374],[-60.105,-3.3056],[-60.2031,-3.3252],[-60.279,-3.3021],[-60.4106,-3.2998],[-60.5978,-3.3186],[-60.747,-3.3981],[-60.8582,-3.5383],[-61.0359,-3.6104],[-61.2802,-3.6141],[-61.4675,-3.676],[-61.5981,-3.7963],[-61.717,-3.883],[-61.8244,-3.9361],[-61.8927,-3.9468],[-62.0112,-3.8957],[-62.2774,-3.7618],[-62.3674,-3.7181],[-62.3934,-3.7164],[-62.4235,-3.7305],[-62.4494,-3.8019],[-62.5431,-3.8511],[-62.7046,-3.8781],[-62.8629,-3.9383],[-63.0181,-4.0319],[-63.0968,-4.0785],[-63.1522,-4.0715],[-63.1773,-4.0352],[-63.2163,-3.9745],[-63.2829,-3.9229],[-63.4496,-3.8709],[-63.5732,-3.8539],[-63.6538,-3.8719],[-63.7474,-3.8684],[-63.8542,-3.8434],[-64.0355,-3.7646],[-64.2913,-3.6319],[-64.4583,-3.5237],[-64.5756,-3.3982],[-64.7903,-3.2224],[-64.9051,-3.1284],[-65.0697,-2.9705],[-65.1795,-2.8345],[-65.2878,-2.7468],[-65.3946,-2.7073],[-65.4587,-2.6635],[-65.48,-2.6155],[-65.5582,-2.5943],[-65.761,-2.603],[-65.9006,-2.4931],[-65.9773,-2.4662],[-66.0377,-2.4855],[-66.0962,-2.4774],[-66.1528,-2.4419],[-66.2103,-2.46],[-66.2689,-2.5317],[-66.334,-2.5367],[-66.4054,-2.4751],[-66.471,-2.4391],[-66.5307,-2.4285],[-66.5725,-2.4781],[-66.5964,-2.5879],[-66.641,-2.6592],[-66.7062,-2.6918],[-66.8007,-2.7145],[-66.9245,-2.7273],[-67.077,-2.6954],[-67.258,-2.6188],[-67.384,-2.6228],[-67.4551,-2.7074],[-67.5724,-2.7792],[-67.7359,-2.8382],[-67.8463,-2.9278],[-67.9324,-3.108],[-67.9265,-3.2233],[-67.9457,-3.2831],[-67.9879,-3.3259],[-68.0946,-3.3339],[-68.2658,-3.3069],[-68.5957,-3.3454],[-69.0842,-3.4493],[-69.3519,-3.5527],[-69.3988,-3.6554],[-69.4163,-3.7641],[-69.4044,-3.8785],[-69.425,-3.9735],[-69.478,-4.0491],[-69.4809,-4.1114],[-69.4337,-4.1606],[-69.4588,-4.2231],[-69.556,-4.2988],[-69.6853,-4.3347],[-69.8465,-4.3305],[-69.9481,-4.2852],[-69.9659,-4.236],[-70.0172,-4.162],[-70.0948,-4.0922],[-70.1675,-4.0502],[-70.1984,-3.9952],[-70.2403,-3.8827],[-70.2984,-3.8443],[-70.3395,-3.8143],[-70.3792,-3.8187],[-70.4211,-3.8496],[-70.4858,-3.8694],[-70.5297,-3.8664],[-70.5574,-3.87],[-70.9005,-3.9601],[-71.0579,-3.9854],[-71.138,-3.9634],[-71.1933,-3.9028],[-71.2833,-3.869],[-71.4082,-3.8622],[-71.5214,-3.8264],[-71.623,-3.7615],[-71.6887,-3.6499],[-71.7184,-3.4917],[-71.752,-3.3948],[-71.7894,-3.3592],[-71.914,-3.3837],[-72.1258,-3.4685],[-72.2927,-3.5034],[-72.4759,-3.481],[-72.7468,-3.4567],[-72.8905,-3.467],[-72.9973,-3.5037],[-73.0937,-3.5623],[-73.1796,-3.6426],[-73.2114,-3.783],[-73.189,-3.9836],[-73.1922,-4.0992],[-73.2212,-4.13],[-73.2685,-4.1359],[-73.334,-4.1169],[-73.3657,-4.1325],[-73.3635,-4.1826],[-73.3854,-4.2309],[-73.4315,-4.2771],[-73.463,-4.3363],[-73.4886,-4.4448],[-73.4886,-4.4448]]}},{"type":"Feature","properties":{"_manaName":"Yangtsé","name":"Yangtsé","_manaColor":"#1976D2","_manaFillOpacity":0.85,"_manaWeight":3,"_manaBorderColor":"#FFFFFF","_manaGroupName":"Ríos","_manaGroupId":"rios","_manaLabelStyle":{"fontSize":11,"fontFamily":"Arial, sans-serif","fontWeight":"bold","color":"#0D47A1","haloWidth":3,"haloColor":"#FFFFFF","placement":"line"},"Longitud (km)":6300,"Nacimiento":"Tíbet, China","Desembocadura":"Mar de China Oriental","Países":"China","Continente":"Asia","Description":"Yangtsé — 6300 km — Asia","_manaGeometryType":"line"},"geometry":{"type":"LineString","coordinates":[[103.8507,28.668],[103.9423,28.6268],[104.0937,28.6207],[104.3355,28.6359],[104.4922,28.6787],[104.5637,28.7491],[104.6204,28.7794],[104.6505,28.7954],[104.7528,28.8174],[104.8334,28.8156],[104.8925,28.7898],[104.9395,28.793],[104.9854,28.7905],[105.0116,28.7777],[105.0427,28.7457],[105.0913,28.7244],[105.128,28.7321],[105.1526,28.769],[105.2086,28.7865],[105.2962,28.7845],[105.351,28.8051],[105.373,28.8482],[105.4238,28.8771],[105.503,28.8918],[105.5471,28.9147],[105.5765,28.9219],[105.6195,28.9059],[105.6733,28.8977],[105.7413,28.918],[105.7847,28.9061],[105.8034,28.8618],[105.8289,28.8387],[105.8611,28.8369],[105.8816,28.8522],[105.8904,28.8843],[105.8757,28.9147],[105.8378,28.9432],[105.8343,28.98],[105.8652,29.0248],[105.9458,29.0581],[106.0759,29.0797],[106.1463,29.1252],[106.157,29.1947],[106.253,29.2741],[106.4342,29.3635],[106.5181,29.4262],[106.5048,29.4624],[106.5227,29.5165],[106.5718,29.5885],[106.6175,29.6116],[106.6597,29.5856],[106.7211,29.5778],[106.8018,29.5882],[106.8943,29.65],[106.9984,29.7632],[107.0837,29.7871],[107.1501,29.7215],[107.2373,29.6986],[107.3451,29.7183],[107.4188,29.7709],[107.4583,29.8564],[107.5301,29.8905],[107.6342,29.8733],[107.8417,30.0434],[108.3081,30.5795],[108.3912,30.6918],[108.4183,30.7554],[108.4172,30.8077],[108.4431,30.8534],[108.4958,30.8924],[108.7567,30.9365],[109.46,31.01],[109.5455,31.0345],[109.5981,31.0313],[109.6464,31.0085],[109.7415,31.0162],[109.8839,31.0544],[109.9841,31.0614],[110.0425,31.0371],[110.1427,31.0319],[110.2847,31.0455],[110.4736,31.0197],[110.8276,30.9217],[110.9709,30.8522],[111.045,30.8349],[111.0977,30.8467],[111.1589,30.8286],[111.2285,30.7806],[111.3086,30.6732],[111.3992,30.5066],[111.4653,30.4177],[111.5067,30.4067],[111.5205,30.3843],[111.5065,30.3506],[111.5123,30.3182],[111.5378,30.2872],[111.5708,30.2872],[111.6123,30.3109],[111.7356,30.3893],[111.8183,30.426],[111.8603,30.4208],[111.9105,30.3867],[111.9687,30.3234],[112.0581,30.2927],[112.1788,30.2946],[112.2469,30.2775],[112.2627,30.2416],[112.2521,30.1908],[112.215,30.1251],[112.2518,30.0677],[112.3625,30.0184],[112.4056,29.9269],[112.381,29.7933],[112.4097,29.7385],[112.4919,29.7624],[112.5437,29.7923],[112.5694,29.7842],[112.5934,29.7657],[112.6045,29.7524],[112.6287,29.7524],[112.632,29.7649],[112.657,29.788],[112.7065,29.7994],[112.7389,29.7855],[112.7323,29.7723],[112.7447,29.7537],[112.7819,29.7439],[112.8188,29.7374],[112.8846,29.7603],[112.9418,29.7403],[112.9551,29.6907],[112.9399,29.6686],[112.917,29.5996],[112.9241,29.53],[112.9506,29.5077],[112.9886,29.5052],[113.0165,29.4944],[113.031,29.4808],[113.0527,29.4691],[113.0968,29.4564],[113.1277,29.4628],[113.1277,29.4628]]}},{"type":"Feature","properties":{"_manaName":"Misisipi-Misuri","name":"Misisipi-Misuri","_manaColor":"#1E88E5","_manaFillOpacity":0.85,"_manaWeight":3,"_manaBorderColor":"#FFFFFF","_manaGroupName":"Ríos","_manaGroupId":"rios","_manaLabelStyle":{"fontSize":11,"fontFamily":"Arial, sans-serif","fontWeight":"bold","color":"#0D47A1","haloWidth":3,"haloColor":"#FFFFFF","placement":"line"},"Longitud (km)":6275,"Nacimiento":"Lago Itasca, Minnesota, EE.UU.","Desembocadura":"Golfo de México, Luisiana, EE.UU.","Países":"Estados Unidos","Continente":"Norteamérica","Description":"Misisipi-Misuri — 6275 km — Norteamérica","_manaGeometryType":"line"},"geometry":{"type":"LineString","coordinates":[[-94.3265,47.4056],[-94.1436,47.4641],[-94.5068,47.4564],[-89.3761,28.9813],[-89.0157,29.2029],[-89.2886,29.1775],[-89.1808,29.3357],[-89.4331,29.2944],[-89.6156,29.387],[-89.6697,29.4435],[-89.758,29.5055],[-89.9729,29.6888],[-90.0116,29.8109],[-89.9581,29.8756],[-89.9227,29.8883],[-89.9325,29.9139],[-90.2496,29.9428],[-90.464,30.0317],[-90.7441,30.0235],[-90.8782,30.0752],[-90.9442,30.1267],[-91.0211,30.1471],[-91.0745,30.2036],[-91.1335,30.2272],[-91.1479,30.2678],[-91.1912,30.3072],[-91.1951,30.3518],[-91.2353,30.4025],[-91.2264,30.5049],[-91.257,30.5652],[-91.3383,30.7062],[-91.4227,30.7533],[-91.5571,30.78],[-91.5233,30.8538],[-91.5456,30.9083],[-91.6463,30.9524],[-91.6572,30.996],[-91.611,31.0649],[-91.6308,31.2176],[-91.5587,31.2879],[-91.529,31.4488],[-91.4591,31.555],[-91.3725,31.7737],[-91.1565,31.9707],[-91.0887,32.1041],[-91.0482,32.1459],[-90.9477,32.2401],[-90.9404,32.3031],[-90.99,32.381],[-91.1038,32.4905],[-91.1161,32.5862],[-91.1424,32.661],[-91.0921,32.7259],[-91.1361,32.8089],[-91.0961,32.9377],[-91.1529,33.0406],[-91.1173,33.2408],[-91.1685,33.3595],[-91.1543,33.5002],[-91.2027,33.547],[-91.1727,33.6167],[-91.2075,33.6757],[-91.1003,33.7674],[-91.0527,33.8276],[-91.0501,33.9452],[-91.0604,33.9893],[-90.9431,34.0297],[-90.9088,34.0716],[-90.9097,34.1888],[-90.7681,34.3081],[-90.7181,34.3917],[-90.584,34.5037],[-90.5392,34.7282],[-90.4748,34.76],[-90.4159,34.8516],[-90.2821,34.9453],[-90.2938,35.0045],[-90.1423,35.1143],[-90.1079,35.3142],[-89.9673,35.5033],[-89.9435,35.6791],[-89.7797,35.8057],[-89.7681,35.8453],[-89.7689,35.8721],[-89.7382,35.8987],[-89.6889,35.921],[-89.7093,35.983],[-89.6419,36.1045],[-89.6745,36.2206],[-89.628,36.2553],[-89.5835,36.2722],[-89.6117,36.322],[-89.5553,36.3729],[-89.56,36.5131],[-89.5496,36.5531],[-89.5195,36.5548],[-89.4854,36.4981],[-89.4518,36.4975],[-89.3513,36.6112],[-89.2801,36.6],[-89.2031,36.6255],[-89.1295,36.8111],[-89.1543,36.9921],[-89.2724,37.08],[-89.2917,37.0707],[-89.2933,37.0382],[-89.29,37.0128],[-89.3519,37.0355],[-89.4869,37.2127],[-89.462,37.3657],[-89.5029,37.5058],[-89.5234,37.6445],[-89.823,37.8841],[-90.0639,38.0005],[-90.299,38.174],[-90.374,38.3098],[-90.1507,38.7805],[-90.1268,38.8326],[-90.1499,38.8599],[-90.3544,38.9302],[-90.5771,38.9096],[-90.7372,39.1818],[-91.2099,39.6028],[-91.4259,39.8268],[-91.5016,40.0975],[-91.442,40.3794],[-91.3805,40.4476],[-91.339,40.604],[-91.1021,40.7498],[-90.954,41.0156],[-91.0013,41.146],[-91.0821,41.2803],[-90.9388,41.4256],[-90.5867,41.4947],[-90.3475,41.632],[-90.276,41.77],[-90.1766,41.8836],[-90.1494,42.0537],[-90.2332,42.154],[-90.4105,42.2721],[-90.4847,42.3833],[-90.6573,42.5205],[-90.7887,42.6769],[-91.0696,42.7886],[-91.1482,42.9862],[-91.1476,43.1996],[-91.1172,43.3312],[-91.2187,43.3953],[-91.2784,43.7974],[-91.3827,43.9908],[-91.7164,44.1265],[-91.9123,44.2889],[-92.1486,44.4452],[-92.3131,44.4978],[-92.4416,44.5866],[-92.6435,44.6453],[-92.9626,44.7902],[-93.0704,44.9124],[-93.1752,44.9132],[-93.2905,45.0869],[-93.4079,45.2024],[-94.063,45.4392],[-94.1892,45.577],[-94.2017,45.6616],[-94.3202,45.7887],[-94.3888,45.9061],[-94.3631,46.0508],[-94.3942,46.1943],[-94.1834,46.3955],[-94.0572,46.5432],[-93.7981,46.5586],[-93.6406,46.6512],[-93.486,46.7252],[-93.3248,46.9443],[-93.3566,47.0441],[-93.4449,47.1601],[-93.5928,47.2432],[-93.7587,47.2284],[-93.7948,47.2903],[-93.9006,47.3062],[-94.0941,47.4328],[-94.9681,47.3175],[-94.7943,47.4821],[-94.5077,47.4565],[-94.3265,47.4056]]}},{"type":"Feature","properties":{"_manaName":"Yenisei-Angará","name":"Yenisei-Angará","_manaColor":"#2196F3","_manaFillOpacity":0.85,"_manaWeight":3,"_manaBorderColor":"#FFFFFF","_manaGroupName":"Ríos","_manaGroupId":"rios","_manaLabelStyle":{"fontSize":11,"fontFamily":"Arial, sans-serif","fontWeight":"bold","color":"#0D47A1","haloWidth":3,"haloColor":"#FFFFFF","placement":"line"},"Longitud (km)":5539,"Nacimiento":"Montes Sayanes, Rusia","Desembocadura":"Mar de Kara, Rusia","Países":"Mongolia, Rusia","Continente":"Asia","Description":"Yenisei-Angará — 5539 km — Asia","_manaGeometryType":"line"},"geometry":{"type":"LineString","coordinates":[[83.1096,70.1095],[83.3066,70.0487],[83.4642,69.9761],[83.5509,69.8914],[83.7906,69.7895],[84.1833,69.6704],[84.4872,69.647],[84.702,69.7193],[84.9058,69.7662],[85.0983,69.7877],[85.4131,69.7213],[85.8501,69.567],[85.9532,69.4895],[85.9629,69.3822],[85.9922,69.2943],[86.0248,69.1871],[86.0507,69.1187],[86.0117,69.0309],[85.9548,68.9331],[85.9915,68.8407],[86.1926,68.7399],[86.2478,68.7004],[86.2867,68.6658],[86.3298,68.599],[86.3529,68.5288],[86.3445,68.456],[86.4014,68.3805],[86.5236,68.3024],[86.5356,68.2137],[86.4373,68.1143],[86.4364,68.0156],[86.4801,67.9282],[86.4508,67.8404],[86.3474,67.7485],[86.2861,67.66],[86.2882,67.5731],[86.3534,67.488],[86.4467,67.4368],[86.5679,67.4196],[86.6182,67.359],[86.5976,67.2552],[86.6177,67.1842],[86.6786,67.1461],[86.6984,67.0931],[86.6774,67.0251],[86.6881,66.9424],[86.7303,66.845],[86.6303,66.7466],[86.3879,66.6473],[86.2863,66.5846],[86.3257,66.5583],[86.4773,66.5638],[86.7415,66.6011],[87.0324,66.5568],[87.3504,66.431],[87.4582,66.3871],[87.5053,66.3485],[87.5137,66.3196],[87.4794,66.2891],[87.4544,66.2733],[87.3157,66.2249],[87.275,66.19],[87.3116,66.1631],[87.4739,66.1348],[87.7618,66.1051],[87.9139,66.0617],[87.9305,66.0045],[87.8958,65.9624],[87.8099,65.9356],[87.7655,65.9096],[87.7627,65.8844],[87.7717,65.8538],[87.7926,65.8178],[87.8499,65.7908],[87.9437,65.7727],[88.0034,65.7405],[88.0291,65.6942],[87.9802,65.4574],[87.8476,64.9994],[87.8224,64.8775],[87.7948,64.8166],[87.7677,64.7867],[87.7002,64.7374],[87.6309,64.6793],[87.5641,64.5945],[87.54,64.5163],[87.5445,64.4425],[87.5774,64.3729],[87.5793,64.2712],[87.55,64.1373],[87.5576,64.0386],[87.602,63.9749],[87.5512,63.8855],[87.4049,63.7705],[87.3471,63.6778],[87.3774,63.6073],[87.3595,63.5276],[87.2933,63.4386],[87.2657,63.3819],[87.277,63.3575],[87.4418,63.2992],[87.76,63.207],[88.0243,63.0925],[88.3399,62.8875],[88.4341,62.8539],[88.4805,62.803],[88.5103,62.7238],[88.5953,62.6346],[88.7356,62.5354],[88.8573,62.4715],[88.9605,62.4429],[89.0136,62.388],[89.0164,62.307],[89.0826,62.1791],[89.2123,62.0042],[89.3252,61.8942],[89.4698,61.8267],[89.7056,61.7508],[89.7857,61.6882],[89.7887,61.6134],[89.8434,61.586],[89.9502,61.6057],[90.0523,61.6014],[90.1499,61.5728],[90.1737,61.537],[90.1238,61.4939],[90.0013,61.4499],[89.806,61.4053],[89.6846,61.3365],[89.6367,61.2438],[89.659,61.11],[89.7511,60.9352],[89.8471,60.8155],[89.9466,60.7506],[90.0059,60.657],[90.0249,60.5345],[90.0558,60.4592],[90.12,60.4165],[90.1662,60.3811],[90.1719,60.307],[90.3088,60.2384],[90.4948,60.1149],[90.6985,59.9272],[90.783,59.7819],[90.8042,59.7454],[90.8582,59.7066],[90.8841,59.6571],[90.8819,59.5969],[90.9895,59.4982],[91.2067,59.3609],[91.3253,59.2672],[91.3455,59.217],[91.4309,59.1633],[91.5819,59.1062],[91.6781,59.0508],[91.7193,58.9971],[91.7326,58.9531],[91.7178,58.9188],[91.7686,58.9005],[91.8847,58.8983],[91.9767,58.8764],[92.0446,58.8347],[92.0464,58.7948],[91.982,58.7566],[91.9823,58.7273],[92.0475,58.7068],[92.0837,58.6494],[92.0909,58.555],[92.139,58.4985],[92.2279,58.4797],[92.2755,58.4507],[92.2818,58.4116],[92.3198,58.3802],[92.3896,58.3566],[92.4281,58.3256],[92.4355,58.2872],[92.4726,58.2449],[92.5394,58.1989],[92.6792,58.1569],[92.9981,58.1001],[92.9981,58.1001]]}},{"type":"Feature","properties":{"_manaName":"Río Amarillo","name":"Río Amarillo","_manaColor":"#42A5F5","_manaFillOpacity":0.85,"_manaWeight":3,"_manaBorderColor":"#FFFFFF","_manaGroupName":"Ríos","_manaGroupId":"rios","_manaLabelStyle":{"fontSize":11,"fontFamily":"Arial, sans-serif","fontWeight":"bold","color":"#0D47A1","haloWidth":3,"haloColor":"#FFFFFF","placement":"line"},"Longitud (km)":5464,"Nacimiento":"Meseta de Tíbet, China","Desembocadura":"Mar de Bohai, China","Países":"China","Continente":"Asia","Description":"Río Amarillo — 5464 km — Asia","_manaGeometryType":"line"},"geometry":{"type":"LineString","coordinates":[[97.2883,34.8354],[97.1937,34.9131],[97.7628,35.0881],[97.6594,34.9089],[97.2883,34.8354],[97.7628,35.0881],[98.028,35.0338],[98.1974,34.8739],[98.3823,34.7982],[98.4,34.6736],[98.3477,34.5934],[98.4685,34.4446],[98.6609,34.3666],[98.7201,34.43],[98.8086,34.4731],[99.0012,34.4275],[99.0607,34.0812],[99.2451,33.8028],[99.3591,33.7512],[99.3907,33.8086],[99.5258,33.7813],[99.721,33.7915],[100.0621,33.6307],[100.2562,33.6622],[100.3298,33.7574],[100.5874,33.8833],[100.7404,33.9275],[100.942,33.777],[101.0261,33.8394],[101.3009,33.7267],[101.6627,33.6794],[101.9193,33.4727],[102.0662,33.3558],[102.3854,33.4337],[102.4816,33.5213],[102.3872,33.592],[102.3298,33.7251],[102.2851,33.8003],[102.1032,33.9592],[101.8376,34.0473],[101.517,34.2185],[101.2105,34.3505],[101.087,34.5127],[100.912,34.5934],[100.8147,34.7075],[100.6298,34.7082],[100.4551,34.8126],[100.3074,34.9355],[100.2586,35.2817],[100.1661,35.4238],[100.2549,35.6954],[100.4093,35.7772],[100.7435,36.0498],[101.0088,36.1448],[101.0849,36.1123],[101.3434,36.0649],[101.6297,36.1515],[101.893,36.086],[102.0638,35.8859],[102.3559,35.8734],[102.9478,35.8056],[103.2986,35.8783],[103.2317,35.9703],[103.3884,36.1391],[103.7711,36.0957],[103.9951,36.0751],[104.0227,36.1563],[104.1792,36.3218],[104.591,36.5466],[104.7198,36.6707],[104.6252,36.7979],[104.4001,36.8839],[104.3079,37.0349],[104.3527,37.1739],[104.5203,37.2413],[104.6916,37.3586],[104.9979,37.4615],[105.4328,37.4947],[105.8004,37.5647],[105.9636,37.8103],[106.125,37.9771],[106.2509,38.1769],[106.4572,38.3785],[106.5591,38.6395],[106.7736,38.9183],[106.8713,39.0753],[106.7829,39.3403],[106.7763,39.6107],[106.7178,40.0163],[107.1492,40.3955],[107.174,40.4999],[107.3797,40.6712],[107.7196,40.7935],[107.8621,40.8645],[108.1902,40.8633],[108.2901,40.8147],[108.476,40.7781],[108.6506,40.632],[108.8841,40.5467],[109.1341,40.5348],[109.4496,40.4888],[109.6346,40.5319],[109.8357,40.4913],[110.3034,40.484],[110.6745,40.3019],[110.9185,40.2657],[111.1253,40.2346],[111.4069,40.0125],[111.4164,39.8674],[111.3855,39.7179],[111.433,39.5762],[111.2842,39.4295],[111.1681,39.3999],[111.155,39.3474],[111.1993,39.2396],[111.0814,39.0441],[110.9803,38.9563],[110.9704,38.8322],[110.8779,38.5998],[110.7976,38.443],[110.5035,38.1133],[110.5848,37.8807],[110.7824,37.6138],[110.7188,37.4647],[110.6438,37.3842],[110.6099,37.217],[110.4271,37.0206],[110.3843,37.0051],[110.4077,36.9192],[110.3928,36.7629],[110.4282,36.717],[110.417,36.6477],[110.4857,36.4288],[110.4901,36.0057],[110.5794,35.5337],[110.3661,35.2342],[110.2784,35.008],[110.2699,34.6373],[110.6186,34.6042],[110.8903,34.6826],[111.0269,34.7462],[111.2432,34.8302],[111.5887,34.8994],[111.7364,35.0299],[112.1179,35.0216],[112.8568,34.809],[113.1557,34.8748],[113.3987,34.9742],[113.6175,34.9537],[113.9003,34.8946],[114.1563,34.9361],[114.6814,34.9276],[114.8309,35.0198],[96.7477,35.0532],[114.8377,35.0198],[114.8656,35.1446],[115.0139,35.3295],[115.2721,35.4588],[115.341,35.5378],[115.4633,35.6809],[115.7811,35.8298],[115.8657,35.9101],[115.9236,35.966],[116.0357,36.071],[116.1159,36.143],[116.4506,36.3385],[116.5926,36.4895],[116.7351,36.6557],[117.0244,36.7729],[117.2401,36.9936],[117.4854,37.1268],[117.6084,37.228],[117.8247,37.2598],[118.1279,37.3469],[118.2984,37.5411],[118.4978,37.6189],[118.8263,37.7796],[119.0357,37.8092],[119.0357,37.8092]]}},{"type":"Feature","properties":{"_manaName":"Ob-Irtysh","name":"Ob-Irtysh","_manaColor":"#64B5F6","_manaFillOpacity":0.85,"_manaWeight":3,"_manaBorderColor":"#FFFFFF","_manaGroupName":"Ríos","_manaGroupId":"rios","_manaLabelStyle":{"fontSize":11,"fontFamily":"Arial, sans-serif","fontWeight":"bold","color":"#0D47A1","haloWidth":3,"haloColor":"#FFFFFF","placement":"line"},"Longitud (km)":5410,"Nacimiento":"Montes Altái, Rusia","Desembocadura":"Golfo de Ob, Rusia","Países":"China, Kazajistán, Rusia","Continente":"Asia","Description":"Ob-Irtysh — 5410 km — Asia","_manaGeometryType":"line"},"geometry":{"type":"LineString","coordinates":[[83.0254,54.8452],[82.004,54.3584],[81.7405,54.2689],[81.5221,54.1041],[81.3272,53.9911],[85.0562,52.4336],[84.3473,52.3926],[84.0033,52.3316],[83.7281,52.4143],[83.6826,52.5922],[83.6575,52.9615],[83.6851,53.0833],[83.8602,53.1747],[83.8376,53.3533],[83.4927,53.4288],[83.2285,53.5027],[83.0302,53.4639],[82.7282,53.4254],[82.4544,53.4989],[82.38,53.5847],[82.237,53.6836],[81.9597,53.7337],[81.8356,53.7894],[81.5415,53.7881],[81.3341,53.8856],[70.7843,61.3041],[71.081,61.2826],[71.1994,61.2024],[71.3289,61.2301],[71.6947,61.269],[72.2228,61.2645],[72.466,61.2884],[72.6784,61.2427],[72.9067,61.2634],[73.5662,61.1964],[73.7793,61.2206],[74.0022,61.177],[74.2229,61.2071],[74.3845,61.1684],[74.449,61.1891],[74.6453,61.2154],[74.8684,61.1602],[75.5347,61.0824],[75.7137,61.0101],[75.8871,61.0498],[76.1346,60.9997],[76.4351,60.9055],[76.6262,60.8965],[76.9602,60.7455],[77.3992,60.6488],[77.6023,60.6621],[77.7138,60.586],[77.8072,60.4831],[78.1108,60.3957],[78.3409,60.3714],[78.3885,60.3044],[78.4811,60.2437],[78.6829,60.1499],[78.8359,60.1405],[78.876,60.0844],[78.9619,60.0546],[78.9586,59.9808],[78.9792,59.884],[79.1299,59.805],[79.1465,59.724],[79.1827,59.6472],[79.3876,59.517],[79.6233,59.4604],[79.7792,59.4017],[80.0932,59.4236],[80.1716,59.3495],[80.152,59.289],[80.2951,59.2726],[80.4111,59.3302],[80.5023,59.2993],[80.6162,59.1795],[80.9731,59.0914],[81.2565,59.1178],[81.4107,59.004],[81.4444,58.9447],[81.4959,58.9136],[81.5348,58.8482],[81.5734,58.7974],[81.5544,58.7182],[81.7042,58.7075],[81.7753,58.7358],[81.9025,58.6601],[81.9646,58.5851],[82.1722,58.5492],[82.3387,58.439],[82.4345,58.4039],[82.4626,58.3595],[82.5748,58.3632],[82.7343,58.3054],[82.9281,58.2832],[82.961,58.1934],[83.0972,58.1282],[83.2235,58.0574],[83.3507,57.8265],[83.5498,57.7422],[83.7773,57.6992],[83.8325,57.5796],[83.9429,57.4414],[83.9583,57.3394],[84.1046,57.2774],[84.3435,57.2105],[84.3756,57.137],[84.4139,57.0673],[84.4363,56.9107],[84.308,56.6903],[84.0639,56.4578],[84.054,56.3139],[84.0169,56.2639],[83.9936,56.1797],[83.8867,56.0379],[83.8194,55.8328],[83.6502,55.6799],[83.5356,55.5611],[83.1555,55.4365],[82.9441,55.4331],[82.869,55.3402],[82.8767,55.1729],[82.8791,55.0653],[83.0534,54.9151],[68.8569,61.124],[69.104,61.2134],[69.29,61.215],[69.578,61.2836],[70.0212,61.2516],[68.8569,61.124],[68.5888,61.0955],[68.3476,61.1807],[68.3477,61.3509],[68.3249,61.4512],[67.7795,61.6201],[67.5527,61.7936],[67.292,62.0866],[66.7068,62.2584],[66.4546,62.3798],[66.2807,62.4468],[65.6797,62.6221],[65.1632,62.9964],[65.1492,63.1309],[65.335,63.2961],[65.527,63.395],[65.5571,63.4962],[65.7674,63.5839],[65.7322,63.7074],[65.7215,63.7688],[65.8051,63.8094],[65.7813,63.8782],[65.8051,63.9503],[65.8061,64.0757],[65.8851,64.1014],[65.9295,64.1363],[66.0306,64.1544],[65.9534,64.2422],[65.8853,64.2894],[65.9199,64.3701],[65.7996,64.4815],[65.6851,64.5874],[65.6883,64.6593],[65.5013,64.7557],[65.5329,64.8419],[65.5428,64.9305],[65.524,65.0158],[65.3006,65.0527],[65.2775,65.1757],[65.4553,65.3619],[65.6063,65.4677],[65.6247,65.6038],[65.7357,65.7642],[65.8766,65.9328],[65.8297,66.0945],[65.8393,66.1572],[65.9575,66.2204],[66.2999,66.4114],[66.6633,66.6265],[67.1528,66.5832],[67.315,66.6408],[67.9269,66.5474],[68.3846,66.5996],[68.5333,66.7068],[67.315,66.6408],[67.6922,66.7829],[68.0069,66.7838],[68.2608,66.8075],[68.6551,66.7515],[69.0135,66.7884],[69.0135,66.7884]]}},{"type":"Feature","properties":{"_manaName":"Paraná-Río de la Plata","name":"Paraná-Río de la Plata","_manaColor":"#90CAF9","_manaFillOpacity":0.85,"_manaWeight":3,"_manaBorderColor":"#FFFFFF","_manaGroupName":"Ríos","_manaGroupId":"rios","_manaLabelStyle":{"fontSize":11,"fontFamily":"Arial, sans-serif","fontWeight":"bold","color":"#0D47A1","haloWidth":3,"haloColor":"#FFFFFF","placement":"line"},"Longitud (km)":4880,"Nacimiento":"Serra do Mar, Brasil","Desembocadura":"Río de la Plata, Argentina-Uruguay","Países":"Brasil, Paraguay, Argentina, Uruguay","Continente":"Sudamérica","Description":"Paraná-Río de la Plata — 4880 km — Sudamérica","_manaGeometryType":"line"},"geometry":{"type":"LineString","coordinates":[[-54.6106,-25.4327],[-54.4363,-25.1213],[-54.413,-24.8675],[-54.281,-24.3061],[-54.3183,-24.1281],[-51.9364,-21.4228],[-51.9898,-21.4937],[-52.0726,-21.5541],[-52.1226,-21.7183],[-52.3389,-21.9573],[-52.566,-22.2074],[-50.9975,-19.6676],[-51.0639,-20.223],[-51.3971,-20.4419],[-59.0818,-33.8217],[-58.737,-33.9938],[-58.4295,-33.9909],[-60.2818,-33.2594],[-59.5478,-33.6837],[-59.2874,-33.7424],[-59.1816,-33.8059],[-60.111,-33.2488],[-59.8229,-33.2503],[-59.4716,-33.4628],[-59.1816,-33.8059],[-60.3897,-33.1734],[-58.8162,-27.4379],[-58.8502,-27.6108],[-58.8306,-27.8264],[-58.9298,-28.0764],[-59.0875,-28.2882],[-59.1221,-28.7349],[-59.1945,-28.9809],[-59.2274,-29.0583],[-59.3045,-29.1041],[-59.5293,-29.2503],[-59.6055,-29.4952],[-59.6536,-29.8977],[-59.614,-30.1104],[-59.6558,-30.3362],[-59.6248,-30.5264],[-59.6384,-30.6694],[-59.6751,-30.7604],[-60.0635,-31.2696],[-60.4476,-31.6659],[-60.6659,-31.7677],[-60.7055,-31.9591],[-60.6781,-32.1357],[-60.757,-32.5174],[-60.6985,-32.7795],[-60.5406,-33.0532],[-60.3897,-33.1734],[-54.6319,-26.0058],[-54.7551,-26.5329],[-54.8889,-26.6668],[-54.9621,-26.7593],[-55.0889,-26.8445],[-55.1359,-26.9311],[-55.3458,-26.9732],[-55.4506,-27.0684],[-55.5649,-27.15],[-55.5938,-27.2881],[-55.7146,-27.4148],[-55.859,-27.3619],[-56.0673,-27.3077],[-56.2417,-27.3668],[-56.3705,-27.5374],[-56.5105,-27.4879],[-56.7157,-27.4938],[-56.8717,-27.4407],[-57.1118,-27.4701],[-57.8122,-27.3166],[-58.6048,-27.3144],[-53.9075,-23.4069],[-54.0501,-23.8229],[-54.2669,-24.0659],[-53.9899,-23.8376],[-53.8578,-23.4234],[-52.9608,-22.4548],[-53.2723,-22.7519],[-53.6201,-23.001],[-53.786,-23.3333],[-51.5343,-20.5577],[-51.6191,-20.8068],[-51.8115,-21.0772],[-51.8566,-21.26],[-51.9364,-21.4228],[-50.5316,-19.0871],[-50.6418,-19.1185],[-50.792,-19.2385],[-50.8688,-19.3775],[-50.8643,-19.4377],[-50.9238,-19.4642],[-50.9975,-19.6676],[-55.4325,-14.3574],[-56.0061,-14.6352],[-56.3159,-14.7781],[-56.4968,-15.0369],[-56.444,-15.1713],[-56.2746,-15.3276],[-56.2055,-15.5308],[-56.0888,-15.6802],[-56.1325,-15.8011],[-56.0703,-15.8955],[-55.917,-16.0095],[-55.905,-16.1302],[-55.9772,-16.2543],[-55.9651,-16.3622],[-56.1338,-16.4532],[-56.3821,-16.565],[-56.5288,-16.7847],[-56.6204,-16.8723],[-56.6267,-16.9926],[-56.7899,-17.386],[-56.9802,-17.5947],[-57.1985,-17.8124],[-57.4323,-18.045],[-57.407,-18.4966],[-57.5489,-18.6639],[-57.6065,-18.8384],[-57.6882,-18.9191],[-57.5882,-19.0186],[-57.3653,-19.0704],[-57.304,-19.2326],[-57.3091,-19.3514],[-57.408,-19.4852],[-57.4029,-19.546],[-57.458,-19.6521],[-57.6064,-19.7209],[-57.6492,-19.7887],[-57.8347,-19.9699],[-58.0937,-20.1298],[-58.1293,-20.202],[-58.1476,-20.2497],[-58.0318,-20.3901],[-57.9835,-20.6277],[-57.9344,-20.6754],[-57.8754,-20.7151],[-57.9211,-20.7776],[-57.8805,-20.822],[-57.9018,-20.887],[-57.8426,-20.9415],[-57.8306,-21.1187],[-57.8874,-21.2496],[-57.8684,-21.3167],[-57.9265,-21.4638],[-57.9098,-21.6433],[-57.9813,-22.0904],[-57.9311,-22.2898],[-57.8139,-22.4553],[-57.8165,-22.6707],[-57.9034,-22.7514],[-57.7917,-22.898],[-57.7132,-23.0843],[-57.4758,-23.3483],[-57.4069,-23.6132],[-57.2929,-23.7795],[-57.2987,-23.9718],[-57.1722,-24.1322],[-57.1703,-24.2235],[-57.0796,-24.4029],[-57.0843,-24.5469],[-57.1244,-24.7239],[-57.2172,-24.8566],[-57.2119,-24.9611],[-57.264,-24.9829],[-57.3882,-25.08],[-57.4985,-25.11],[-57.6352,-25.2448],[-57.5872,-25.4051],[-57.5717,-25.5342],[-57.7255,-25.6672],[-57.7571,-25.726],[-57.8652,-25.9069],[-57.8906,-26.0066],[-58.0824,-26.1386],[-58.1181,-26.2249],[-58.1547,-26.2626],[-58.203,-26.3815],[-58.1879,-26.5925],[-58.222,-26.6499],[-58.2456,-26.731],[-58.3177,-26.7959],[-58.3226,-26.8576],[-58.4363,-26.922],[-58.5032,-27.0295],[-58.6186,-27.1321],[-58.6048,-27.3144],[-58.6048,-27.3144]]}},{"type":"Feature","properties":{"_manaName":"Congo","name":"Congo","_manaColor":"#BBDEFB","_manaFillOpacity":0.85,"_manaWeight":3,"_manaBorderColor":"#FFFFFF","_manaGroupName":"Ríos","_manaGroupId":"rios","_manaLabelStyle":{"fontSize":11,"fontFamily":"Arial, sans-serif","fontWeight":"bold","color":"#0D47A1","haloWidth":3,"haloColor":"#FFFFFF","placement":"line"},"Longitud (km)":4700,"Nacimiento":"Meseta de Lualaba, R.D. del Congo","Desembocadura":"Océano Atlántico","Países":"R.D. del Congo, República del Congo","Continente":"África","Description":"Congo — 4700 km — África","_manaGeometryType":"line"},"geometry":{"type":"LineString","coordinates":[[26.4413,-8.272],[26.6543,-8.2231],[26.7424,-8.193],[26.7765,-8.1654],[26.7935,-8.1241],[26.7935,-8.0692],[26.8383,-8.0109],[26.9277,-7.9492],[26.9728,-7.9001],[26.9733,-7.8638],[26.9286,-7.8038],[26.8385,-7.7203],[26.8654,-7.5288],[27.0091,-7.2292],[27.0487,-6.9913],[26.9841,-6.8151],[26.9613,-6.6636],[26.9802,-6.5367],[26.9702,-6.4219],[26.9311,-6.3191],[26.9061,-6.1726],[26.8952,-5.9822],[26.8999,-5.8178],[26.9305,-5.6103],[24.2923,0.7817],[24.1782,0.9237],[24.0049,1.0216],[23.7344,1.1227],[23.4607,1.3418],[23.1838,1.679],[22.9678,1.8732],[22.7349,1.95],[22.557,2.1012],[22.3965,2.1606],[22.194,2.1785],[21.9688,2.1776],[21.7208,2.1579],[21.4993,2.1125],[21.3043,2.0414],[20.9438,1.9947],[20.4179,1.9725],[19.9019,1.8644],[19.1428,1.5736],[18.7141,1.2232],[18.5261,1.0522],[18.4359,0.9437],[18.3429,0.692],[18.1992,0.0998],[18.1843,0.0631],[18.1085,-0.1241],[17.8998,-0.3908],[17.7528,-0.5491],[17.5428,-0.775],[17.2788,-0.9996],[17.1076,-1.0645],[16.9747,-1.1399],[16.8799,-1.2259],[16.8491,-1.2725],[16.7801,-1.3764],[16.6225,-1.699],[16.5407,-1.8401],[16.4336,-1.9609],[16.2739,-2.1082],[16.2154,-2.1778],[16.1915,-2.2791],[16.2018,-2.4647],[16.2173,-3.0303],[16.1906,-3.1944],[16.1467,-3.4641],[15.9901,-3.7662],[15.8724,-3.9343],[15.7546,-3.9855],[15.6001,-4.0309],[15.526,-4.088],[15.4809,-4.1718],[15.3946,-4.245],[15.2672,-4.3076],[15.1063,-4.4611],[14.9121,-4.7056],[14.7793,-4.8458],[14.7079,-4.8817],[14.634,-4.8851],[14.5576,-4.8558],[14.4939,-4.8516],[14.4177,-4.8831],[14.2339,-4.9124],[14.1331,-4.945],[14.0539,-4.9906],[14.0046,-5.052],[13.9852,-5.1292],[13.9379,-5.2046],[13.8628,-5.2782],[13.8317,-5.301],[13.809,-5.3029],[13.7766,-5.2787],[13.7518,-5.2787],[13.7347,-5.3029],[13.6919,-5.3099],[13.6234,-5.2997],[13.5737,-5.3159],[13.543,-5.3585],[13.55,-5.4138],[13.5948,-5.4816],[13.5907,-5.5129],[13.5652,-5.5313],[13.5531,-5.576],[13.5635,-5.655],[13.5121,-5.7434],[13.3987,-5.8414],[13.3026,-5.8819],[13.1843,-5.8563],[13.0682,-5.8649],[13.0682,-5.8649]]}},{"type":"Feature","properties":{"_manaName":"Amur","name":"Amur","_manaColor":"#E3F2FD","_manaFillOpacity":0.85,"_manaWeight":3,"_manaBorderColor":"#FFFFFF","_manaGroupName":"Ríos","_manaGroupId":"rios","_manaLabelStyle":{"fontSize":11,"fontFamily":"Arial, sans-serif","fontWeight":"bold","color":"#0D47A1","haloWidth":3,"haloColor":"#FFFFFF","placement":"line"},"Longitud (km)":4444,"Nacimiento":"Confluencia de Argun y Shilka, Rusia","Desembocadura":"Estrecho de Tartaria, Rusia","Países":"Rusia, China, Mongolia","Continente":"Asia","Description":"Amur — 4444 km — Asia","_manaGeometryType":"line"},"geometry":{"type":"LineString","coordinates":[[137.0699,50.4541],[137.1014,50.2981],[137.0567,50.2157],[136.9465,50.1549],[136.8721,50.0979],[136.8335,50.0446],[136.7712,49.9146],[136.7703,49.8499],[136.8105,49.7593],[140.1141,51.7636],[139.9497,51.6396],[139.9021,51.5968],[139.8577,51.5788],[136.8105,49.7593],[136.8425,49.7292],[136.844,49.6777],[136.8253,49.5949],[136.7208,49.5197],[136.5304,49.4523],[136.3938,49.3673],[136.3109,49.2648],[136.2712,49.1711],[136.2748,49.0861],[136.1618,48.987],[135.8177,48.8171],[135.7447,48.7642],[135.6686,48.7546],[135.5652,48.7709],[135.4448,48.7679],[135.3075,48.7456],[135.1849,48.7045],[135.0771,48.6448],[135.0262,48.5705],[135.0324,48.4818],[134.9645,48.421],[134.8225,48.3881],[134.7087,48.3831],[134.623,48.4063],[134.4867,48.4034],[134.2059,48.3599],[133.8422,48.2737],[133.6718,48.2077],[133.5733,48.133],[133.4684,48.0972],[133.3011,48.1015],[133.144,48.1056],[133.0201,48.0644],[132.8771,47.9791],[132.7728,47.9401],[132.7072,47.9473],[132.6369,47.8901],[132.5619,47.7685],[132.4763,47.715],[132.3802,47.7295],[132.1498,47.718],[131.7853,47.6805],[131.5568,47.682],[131.4643,47.7226],[131.3194,47.7278],[131.1218,47.6976],[131.0028,47.6915],[130.962,47.7093],[130.9329,47.7598],[130.9154,47.8429],[130.8486,47.9294],[130.7326,48.0192],[130.7121,48.1277],[130.7872,48.2546],[130.8042,48.3415],[130.7634,48.3884],[130.7469,48.4304],[130.6592,48.4834],[130.5973,48.5747],[130.5521,48.6025],[130.5656,48.6801],[130.6172,48.7732],[130.5531,48.8612],[130.3553,48.8664],[130.196,48.8916],[130.0371,48.9723],[129.7925,49.1989],[129.6711,49.2785],[129.5914,49.2867],[129.5337,49.3234],[129.4982,49.3888],[129.4407,49.3894],[129.3847,49.3894],[129.3501,49.3624],[129.3099,49.3538],[129.2484,49.3786],[129.1851,49.3814],[129.1201,49.3621],[129.0651,49.3747],[129.0203,49.4193],[128.9383,49.4489],[128.8194,49.4638],[128.7703,49.4947],[128.791,49.5418],[128.769,49.577],[128.704,49.6001],[128.5268,49.5942],[128.2371,49.5593],[127.9996,49.5686],[127.8143,49.6221],[127.7112,49.6715],[127.6902,49.7168],[127.6367,49.7602],[127.5508,49.8018],[127.5024,49.8734],[127.4918,49.975],[127.5124,50.0717],[127.5903,50.209],[139.8577,51.5788],[139.8059,51.5628],[139.7051,51.5582],[139.6024,51.5443],[139.4946,51.5049],[139.449,51.4492],[139.3784,51.4054],[139.2828,51.3737],[139.1593,51.3635],[139.008,51.3746],[138.9181,51.3505],[138.8895,51.2908],[138.825,51.2475],[138.6746,51.2071],[138.0681,50.856],[137.7077,50.7143],[137.3914,50.6649],[137.1871,50.6067],[137.0948,50.5398],[137.054,50.4933],[137.0699,50.4541],[140.1141,51.7637],[140.1469,51.7863],[140.206,51.814],[140.2184,51.8754],[140.182,51.9645],[140.2147,52.0465],[140.3167,52.1213],[140.3853,52.2265],[140.4204,52.3619],[140.4045,52.468],[140.3376,52.5446],[140.262,52.5919],[140.1775,52.6099],[140.1249,52.6573],[140.1041,52.7341],[139.9962,52.8224],[139.8011,52.9219],[139.7566,53.032],[139.8627,53.1527],[140.0025,53.2152],[140.1763,53.2196],[140.3433,53.1876],[140.5036,53.1191],[140.6144,53.0914],[140.7067,53.111],[140.7835,53.1051],[140.8397,53.0879],[140.8397,53.0879]]}}]}