{"type":"FeatureCollection","features":[{"type":"Feature","properties":{"_manaName":"Salto Ángel","name":"Salto Ángel","_manaColor":"#0a427b","_manaFillOpacity":0.9,"_manaWeight":1.2,"_manaBorderColor":"#ffffff","_manaGeometryType":"point","_manaGroupName":"Cascadas naturales por altura total","_manaGroupId":1,"markerType":"emoji_water","_manaMarkerType":"emoji_water","_manaEmojiSize":66,"_manaLabelStyle":{"enabled":true,"field":"_manaName","fontFamily":"monospace","fontSize":10,"fontWeight":"600","color":"#0f172a","haloWidth":3,"haloColor":"#ffffff","opacity":0.9,"placement":"auto"},"Altura (m)":979,"País":"Venezuela","Región":"Bolívar, parque nacional Canaima","Caudal":"río Churún","Superficie":"979 m","Dato":"979 m · Venezuela","Description":"Cascada de 979 m de altura total en Venezuela (Bolívar, parque nacional Canaima). Caudal: río Churún. Es la cascada más alta del mundo: casi un kilómetro de caída libre desde la cima del Auyantepuy. Fue bautizada en 1933 tras el accidente del avión del piloto Jimmie Angel."},"geometry":{"type":"Point","coordinates":[-62.5356,5.9675]}},{"type":"Feature","properties":{"_manaName":"Cascada Tugela","name":"Cascada Tugela","_manaColor":"#0a427b","_manaFillOpacity":0.9,"_manaWeight":1.2,"_manaBorderColor":"#ffffff","_manaGeometryType":"point","_manaGroupName":"Cascadas naturales por altura total","_manaGroupId":1,"markerType":"emoji_water","_manaMarkerType":"emoji_water","_manaEmojiSize":63,"_manaLabelStyle":{"enabled":true,"field":"_manaName","fontFamily":"monospace","fontSize":10,"fontWeight":"600","color":"#0f172a","haloWidth":3,"haloColor":"#ffffff","opacity":0.9,"placement":"auto"},"Altura (m)":947,"País":"Sudárfica","Región":"KwaZulu-Natal, parque Royal Natal","Caudal":"río Tugela","Superficie":"947 m","Dato":"947 m · Sudárfica","Description":"Cascada de 947 m de altura total en Sudárfica (KwaZulu-Natal, parque Royal Natal). Caudal: río Tugela. La cascada más alta de África: cinco saltos acumulados por el acantilado del Drakensberg."},"geometry":{"type":"Point","coordinates":[28.8941,-28.7522]}},{"type":"Feature","properties":{"_manaName":"Cataratas Tres Hermanas","name":"Cataratas Tres Hermanas","_manaColor":"#0a427b","_manaFillOpacity":0.9,"_manaWeight":1.2,"_manaBorderColor":"#ffffff","_manaGeometryType":"point","_manaGroupName":"Cascadas naturales por altura total","_manaGroupId":1,"markerType":"emoji_water","_manaMarkerType":"emoji_water","_manaEmojiSize":61,"_manaLabelStyle":{"enabled":true,"field":"_manaName","fontFamily":"monospace","fontSize":10,"fontWeight":"600","color":"#0f172a","haloWidth":3,"haloColor":"#ffffff","opacity":0.9,"placement":"auto"},"Altura (m)":914,"País":"Perú","Región":"Junín, selva central","Caudal":"cuenca del Ene","Superficie":"914 m","Dato":"914 m · Perú","Description":"Cascada de 914 m de altura total en Perú (Junín, selva central). Caudal: cuenca del Ene. Tres saltos escalonados en plena selva central peruana; una de las cascadas más altas del planeta y casi desconocida fuera de Perú."},"geometry":{"type":"Point","coordinates":[-73.6481,-11.9781]}},{"type":"Feature","properties":{"_manaName":"Cascada Olo'upena","name":"Cascada Olo'upena","_manaColor":"#1561ac","_manaFillOpacity":0.9,"_manaWeight":1.2,"_manaBorderColor":"#ffffff","_manaGeometryType":"point","_manaGroupName":"Cascadas naturales por altura total","_manaGroupId":1,"markerType":"emoji_water","_manaMarkerType":"emoji_water","_manaEmojiSize":59,"_manaLabelStyle":{"enabled":true,"field":"_manaName","fontFamily":"monospace","fontSize":10,"fontWeight":"600","color":"#0f172a","haloWidth":3,"haloColor":"#ffffff","opacity":0.9,"placement":"auto"},"Altura (m)":900,"País":"Estados Unidos","Región":"Hawái, costa norte de Molokaʻi","Caudal":"barrancos costeros","Superficie":"900 m","Dato":"900 m · Estados Unidos","Description":"Cascada de 900 m de altura total en Estados Unidos (Hawái, costa norte de Molokaʻi). Caudal: barrancos costeros. Cae directamente desde los acantilados más altos de Estados Unidos hasta el océano Pacífico; cuarta cascada más alta del mundo."},"geometry":{"type":"Point","coordinates":[-156.8567,21.1558]}},{"type":"Feature","properties":{"_manaName":"Catarata Yumbilla","name":"Catarata Yumbilla","_manaColor":"#1561ac","_manaFillOpacity":0.9,"_manaWeight":1.2,"_manaBorderColor":"#ffffff","_manaGeometryType":"point","_manaGroupName":"Cascadas naturales por altura total","_manaGroupId":1,"markerType":"emoji_water","_manaMarkerType":"emoji_water","_manaEmojiSize":59,"_manaLabelStyle":{"enabled":true,"field":"_manaName","fontFamily":"monospace","fontSize":10,"fontWeight":"600","color":"#0f172a","haloWidth":3,"haloColor":"#ffffff","opacity":0.9,"placement":"auto"},"Altura (m)":896,"País":"Perú","Región":"Amazonas, Utcubamba","Caudal":"río Utcubamba","Superficie":"896 m","Dato":"896 m · Perú","Description":"Cascada de 896 m de altura total en Perú (Amazonas, Utcubamba). Caudal: río Utcubamba. Descubierta para la cartografía mundial en el siglo XXI en la selva de Amazonas; quinta más alta del mundo."},"geometry":{"type":"Point","coordinates":[-77.9012,-5.9199]}},{"type":"Feature","properties":{"_manaName":"Cascada Balåifossen","name":"Cascada Balåifossen","_manaColor":"#1561ac","_manaFillOpacity":0.9,"_manaWeight":1.2,"_manaBorderColor":"#ffffff","_manaGeometryType":"point","_manaGroupName":"Cascadas naturales por altura total","_manaGroupId":1,"markerType":"emoji_water","_manaMarkerType":"emoji_water","_manaEmojiSize":55,"_manaLabelStyle":{"enabled":true,"field":"_manaName","fontFamily":"monospace","fontSize":10,"fontWeight":"600","color":"#0f172a","haloWidth":3,"haloColor":"#ffffff","opacity":0.9,"placement":"auto"},"Altura (m)":850,"País":"Noruega","Región":"Vestland, Eidfjord","Caudal":"desnivel del lago Balåi","Superficie":"850 m","Dato":"850 m · Noruega","Description":"Cascada de 850 m de altura total en Noruega (Vestland, Eidfjord). Caudal: desnivel del lago Balåi. Uno de los saltos más altos de Noruega, alimentada por lagos de montaña sobre el Hardangervidda."},"geometry":{"type":"Point","coordinates":[7.0081,60.5614]}},{"type":"Feature","properties":{"_manaName":"Cascada Vinnufossen","name":"Cascada Vinnufossen","_manaColor":"#1561ac","_manaFillOpacity":0.9,"_manaWeight":1.2,"_manaBorderColor":"#ffffff","_manaGeometryType":"point","_manaGroupName":"Cascadas naturales por altura total","_manaGroupId":1,"markerType":"emoji_water","_manaMarkerType":"emoji_water","_manaEmojiSize":55,"_manaLabelStyle":{"enabled":true,"field":"_manaName","fontFamily":"monospace","fontSize":10,"fontWeight":"600","color":"#0f172a","haloWidth":3,"haloColor":"#ffffff","opacity":0.9,"placement":"auto"},"Altura (m)":845,"País":"Noruega","Región":"Møre og Romsdal, Sunndal","Caudal":"río Vinna","Superficie":"845 m","Dato":"845 m · Noruega","Description":"Cascada de 845 m de altura total en Noruega (Møre og Romsdal, Sunndal). Caudal: río Vinna. La cascada más alta de Europa: cinta de agua de casi medio kilómetro que desciende del Vinnufjellet hasta el valle de Sunndal."},"geometry":{"type":"Point","coordinates":[8.6697,62.6642]}},{"type":"Feature","properties":{"_manaName":"Cascada Pu'uka'oku","name":"Cascada Pu'uka'oku","_manaColor":"#1561ac","_manaFillOpacity":0.9,"_manaWeight":1.2,"_manaBorderColor":"#ffffff","_manaGeometryType":"point","_manaGroupName":"Cascadas naturales por altura total","_manaGroupId":1,"markerType":"emoji_water","_manaMarkerType":"emoji_water","_manaEmojiSize":54,"_manaLabelStyle":{"enabled":true,"field":"_manaName","fontFamily":"monospace","fontSize":10,"fontWeight":"600","color":"#0f172a","haloWidth":3,"haloColor":"#ffffff","opacity":0.9,"placement":"auto"},"Altura (m)":840,"País":"Estados Unidos","Región":"Hawái, costa norte de Molokaʻi","Caudal":"barrancos costeros","Superficie":"840 m","Dato":"840 m · Estados Unidos","Description":"Cascada de 840 m de altura total en Estados Unidos (Hawái, costa norte de Molokaʻi). Caudal: barrancos costeros. Octava del mundo; cae por los acantilados basálticos de Molokaʻi, el mismo relieve que esculpe Olo'upena."},"geometry":{"type":"Point","coordinates":[-156.851,21.1595]}},{"type":"Feature","properties":{"_manaName":"Cascada James Bruce","name":"Cascada James Bruce","_manaColor":"#1561ac","_manaFillOpacity":0.9,"_manaWeight":1.2,"_manaBorderColor":"#ffffff","_manaGeometryType":"point","_manaGroupName":"Cascadas naturales por altura total","_manaGroupId":1,"markerType":"emoji_water","_manaMarkerType":"emoji_water","_manaEmojiSize":54,"_manaLabelStyle":{"enabled":true,"field":"_manaName","fontFamily":"monospace","fontSize":10,"fontWeight":"600","color":"#0f172a","haloWidth":3,"haloColor":"#ffffff","opacity":0.9,"placement":"auto"},"Altura (m)":840,"País":"Canadá","Región":"Columbia Británica, Princess Louisa Inlet","Caudal":"deshielos glaciares","Superficie":"840 m","Dato":"840 m · Canadá","Description":"Cascada de 840 m de altura total en Canadá (Columbia Británica, Princess Louisa Inlet). Caudal: deshielos glaciares. La cascada más alta de Canadá: varios saltos que bajan de los glaciares del Princess Louisa Inlet."},"geometry":{"type":"Point","coordinates":[-123.7825,50.2189]}},{"type":"Feature","properties":{"_manaName":"Cascada Mattenbach","name":"Cascada Mattenbach","_manaColor":"#1561ac","_manaFillOpacity":0.9,"_manaWeight":1.2,"_manaBorderColor":"#ffffff","_manaGeometryType":"point","_manaGroupName":"Cascadas naturales por altura total","_manaGroupId":1,"markerType":"emoji_water","_manaMarkerType":"emoji_water","_manaEmojiSize":54,"_manaLabelStyle":{"enabled":true,"field":"_manaName","fontFamily":"monospace","fontSize":10,"fontWeight":"600","color":"#0f172a","haloWidth":3,"haloColor":"#ffffff","opacity":0.9,"placement":"auto"},"Altura (m)":840,"País":"Suiza","Región":"Berna, valle de Lauterbrunnen","Caudal":"deshielos de montaña","Superficie":"840 m","Dato":"840 m · Suiza","Description":"Cascada de 840 m de altura total en Suiza (Berna, valle de Lauterbrunnen). Caudal: deshielos de montaña. Cascada de deshielo en el histórico valle de Lauterbrunnen, con 200 caídas de agua reconocidas."},"geometry":{"type":"Point","coordinates":[7.9099,46.5465]}},{"type":"Feature","properties":{"_manaName":"Cascada Browne","name":"Cascada Browne","_manaColor":"#2580da","_manaFillOpacity":0.9,"_manaWeight":1.2,"_manaBorderColor":"#ffffff","_manaGeometryType":"point","_manaGroupName":"Cascadas naturales por altura total","_manaGroupId":1,"markerType":"emoji_water","_manaMarkerType":"emoji_water","_manaEmojiSize":54,"_manaLabelStyle":{"enabled":true,"field":"_manaName","fontFamily":"monospace","fontSize":10,"fontWeight":"600","color":"#0f172a","haloWidth":3,"haloColor":"#ffffff","opacity":0.9,"placement":"auto"},"Altura (m)":836,"País":"Nueva Zelanda","Región":"Southland, fiordland","Caudal":"lago Browne","Superficie":"836 m","Dato":"836 m · Nueva Zelanda","Description":"Cascada de 836 m de altura total en Nueva Zelanda (Southland, fiordland). Caudal: lago Browne. Alimentada por un lago suspendido a más de 800 metros sobre el fiordo; entre las más altas del hemisferio sur."},"geometry":{"type":"Point","coordinates":[167.0853,-45.3986]}},{"type":"Feature","properties":{"_manaName":"Cascada Strupenfossen","name":"Cascada Strupenfossen","_manaColor":"#2580da","_manaFillOpacity":0.9,"_manaWeight":1.2,"_manaBorderColor":"#ffffff","_manaGeometryType":"point","_manaGroupName":"Cascadas naturales por altura total","_manaGroupId":1,"markerType":"emoji_water","_manaMarkerType":"emoji_water","_manaEmojiSize":53,"_manaLabelStyle":{"enabled":true,"field":"_manaName","fontFamily":"monospace","fontSize":10,"fontWeight":"600","color":"#0f172a","haloWidth":3,"haloColor":"#ffffff","opacity":0.9,"placement":"auto"},"Altura (m)":820,"País":"Noruega","Región":"Vestland, Stryn","Caudal":"montañas de Gloppen","Superficie":"820 m","Dato":"820 m · Noruega","Description":"Cascada de 820 m de altura total en Noruega (Vestland, Stryn). Caudal: montañas de Gloppen. Cascada de 820 metros en las montañas de Stryn, en el corazón de los fiordos occidentales noruegos."},"geometry":{"type":"Point","coordinates":[6.6351,61.7081]}},{"type":"Feature","properties":{"_manaName":"Cascada Ramnefjellsfossen","name":"Cascada Ramnefjellsfossen","_manaColor":"#2580da","_manaFillOpacity":0.9,"_manaWeight":1.2,"_manaBorderColor":"#ffffff","_manaGeometryType":"point","_manaGroupName":"Cascadas naturales por altura total","_manaGroupId":1,"markerType":"emoji_water","_manaMarkerType":"emoji_water","_manaEmojiSize":52,"_manaLabelStyle":{"enabled":true,"field":"_manaName","fontFamily":"monospace","fontSize":10,"fontWeight":"600","color":"#0f172a","haloWidth":3,"haloColor":"#ffffff","opacity":0.9,"placement":"auto"},"Altura (m)":818,"País":"Noruega","Región":"Vestland, Gloppen","Caudal":"río Ramne","Superficie":"818 m","Dato":"818 m · Noruega","Description":"Cascada de 818 m de altura total en Noruega (Vestland, Gloppen). Caudal: río Ramne. Desciende del glaciar Ramnefjell; en su ladera se formaron lagos tras grandes desprendimientos de roca."},"geometry":{"type":"Point","coordinates":[6.9666,61.7894]}},{"type":"Feature","properties":{"_manaName":"Cascada Waihilau","name":"Cascada Waihilau","_manaColor":"#2580da","_manaFillOpacity":0.9,"_manaWeight":1.2,"_manaBorderColor":"#ffffff","_manaGeometryType":"point","_manaGroupName":"Cascadas naturales por altura total","_manaGroupId":1,"markerType":"emoji_water","_manaMarkerType":"emoji_water","_manaEmojiSize":50,"_manaLabelStyle":{"enabled":true,"field":"_manaName","fontFamily":"monospace","fontSize":10,"fontWeight":"600","color":"#0f172a","haloWidth":3,"haloColor":"#ffffff","opacity":0.9,"placement":"auto"},"Altura (m)":792,"País":"Estados Unidos","Región":"Hawái, Kohala (isla Grande)","Caudal":"barrancos de Kohala","Superficie":"792 m","Dato":"792 m · Estados Unidos","Description":"Cascada de 792 m de altura total en Estados Unidos (Hawái, Kohala (isla Grande)). Caudal: barrancos de Kohala. Entre las cascadas más altas de Estados Unidos, en los profundos barrancos volcánicos de Kohala."},"geometry":{"type":"Point","coordinates":[-155.6575,20.1133]}},{"type":"Feature","properties":{"_manaName":"Cascada Colonial Creek","name":"Cascada Colonial Creek","_manaColor":"#2580da","_manaFillOpacity":0.9,"_manaWeight":1.2,"_manaBorderColor":"#ffffff","_manaGeometryType":"point","_manaGroupName":"Cascadas naturales por altura total","_manaGroupId":1,"markerType":"emoji_water","_manaMarkerType":"emoji_water","_manaEmojiSize":50,"_manaLabelStyle":{"enabled":true,"field":"_manaName","fontFamily":"monospace","fontSize":10,"fontWeight":"600","color":"#0f172a","haloWidth":3,"haloColor":"#ffffff","opacity":0.9,"placement":"auto"},"Altura (m)":788,"País":"Estados Unidos","Región":"Washington, parque nacional North Cascades","Caudal":"glaciar Colonial","Superficie":"788 m","Dato":"788 m · Estados Unidos","Description":"Cascada de 788 m de altura total en Estados Unidos (Washington, parque nacional North Cascades). Caudal: glaciar Colonial. La cascada más alta de los 48 estados contiguos: cae del glaciar Colonial en las North Cascades."},"geometry":{"type":"Point","coordinates":[-121.1404,48.6702]}},{"type":"Feature","properties":{"_manaName":"Cascada Mongefossen","name":"Cascada Mongefossen","_manaColor":"#609edc","_manaFillOpacity":0.9,"_manaWeight":1.2,"_manaBorderColor":"#ffffff","_manaGeometryType":"point","_manaGroupName":"Cascadas naturales por altura total","_manaGroupId":1,"markerType":"emoji_water","_manaMarkerType":"emoji_water","_manaEmojiSize":49,"_manaLabelStyle":{"enabled":true,"field":"_manaName","fontFamily":"monospace","fontSize":10,"fontWeight":"600","color":"#0f172a","haloWidth":3,"haloColor":"#ffffff","opacity":0.9,"placement":"auto"},"Altura (m)":773,"País":"Noruega","Región":"Møre og Romsdal, valle de Rauma","Caudal":"río Rauma","Superficie":"773 m","Dato":"773 m · Noruega","Description":"Cascada de 773 m de altura total en Noruega (Møre og Romsdal, valle de Rauma). Caudal: río Rauma. El ferrocarril de Rauma la cruza por un puente-túnel: uno de los pocos casos en que una cascada de este tamaño es visible desde un tren."},"geometry":{"type":"Point","coordinates":[7.8953,62.4428]}},{"type":"Feature","properties":{"_manaName":"Catarata Gocta","name":"Catarata Gocta","_manaColor":"#609edc","_manaFillOpacity":0.9,"_manaWeight":1.2,"_manaBorderColor":"#ffffff","_manaGeometryType":"point","_manaGroupName":"Cascadas naturales por altura total","_manaGroupId":1,"markerType":"emoji_water","_manaMarkerType":"emoji_water","_manaEmojiSize":49,"_manaLabelStyle":{"enabled":true,"field":"_manaName","fontFamily":"monospace","fontSize":10,"fontWeight":"600","color":"#0f172a","haloWidth":3,"haloColor":"#ffffff","opacity":0.9,"placement":"auto"},"Altura (m)":771,"País":"Perú","Región":"Amazonas, Chachapoyas","Caudal":"río Gocta","Superficie":"771 m","Dato":"771 m · Perú","Description":"Cascada de 771 m de altura total en Perú (Amazonas, Chachapoyas). Caudal: río Gocta. Dada a conocer al mundo en 2006, oculta durante siglos en la selva de Chachapoyas; sus 771 metros la sitúan entre las más altas del planeta."},"geometry":{"type":"Point","coordinates":[-77.8856,-6.0206]}},{"type":"Feature","properties":{"_manaName":"Cascada Mutarazi","name":"Cascada Mutarazi","_manaColor":"#609edc","_manaFillOpacity":0.9,"_manaWeight":1.2,"_manaBorderColor":"#ffffff","_manaGeometryType":"point","_manaGroupName":"Cascadas naturales por altura total","_manaGroupId":1,"markerType":"emoji_water","_manaMarkerType":"emoji_water","_manaEmojiSize":48,"_manaLabelStyle":{"enabled":true,"field":"_manaName","fontFamily":"monospace","fontSize":10,"fontWeight":"600","color":"#0f172a","haloWidth":3,"haloColor":"#ffffff","opacity":0.9,"placement":"auto"},"Altura (m)":762,"País":"Zimbabue","Región":"Manicaland, meseta de Nyanga","Caudal":"río Mutarazi","Superficie":"762 m","Dato":"762 m · Zimbabue","Description":"Cascada de 762 m de altura total en Zimbabue (Manicaland, meseta de Nyanga). Caudal: río Mutarazi. La cascada más alta de Zimbabue y la segunda de África, en las tierras altas del este del país."},"geometry":{"type":"Point","coordinates":[32.7912,-18.484]}},{"type":"Feature","properties":{"_manaName":"Cascada Kjelfossen","name":"Cascada Kjelfossen","_manaColor":"#609edc","_manaFillOpacity":0.9,"_manaWeight":1.2,"_manaBorderColor":"#ffffff","_manaGeometryType":"point","_manaGroupName":"Cascadas naturales por altura total","_manaGroupId":1,"markerType":"emoji_water","_manaMarkerType":"emoji_water","_manaEmojiSize":47,"_manaLabelStyle":{"enabled":true,"field":"_manaName","fontFamily":"monospace","fontSize":10,"fontWeight":"600","color":"#0f172a","haloWidth":3,"haloColor":"#ffffff","opacity":0.9,"placement":"auto"},"Altura (m)":755,"País":"Noruega","Región":"Vestland, Voss","Caudal":"deshielos de montaña","Superficie":"755 m","Dato":"755 m · Noruega","Description":"Cascada de 755 m de altura total en Noruega (Vestland, Voss). Caudal: deshielos de montaña. Cae desde las montañas sobre Voss, zona de caídas de agua legendaria de Noruega."},"geometry":{"type":"Point","coordinates":[6.8619,60.8747]}},{"type":"Feature","properties":{"_manaName":"Cascada Johannesburg","name":"Cascada Johannesburg","_manaColor":"#609edc","_manaFillOpacity":0.9,"_manaWeight":1.2,"_manaBorderColor":"#ffffff","_manaGeometryType":"point","_manaGroupName":"Cascadas naturales por altura total","_manaGroupId":1,"markerType":"emoji_water","_manaMarkerType":"emoji_water","_manaEmojiSize":47,"_manaLabelStyle":{"enabled":true,"field":"_manaName","fontFamily":"monospace","fontSize":10,"fontWeight":"600","color":"#0f172a","haloWidth":3,"haloColor":"#ffffff","opacity":0.9,"placement":"auto"},"Altura (m)":751,"País":"Estados Unidos","Región":"Washington, North Cascades","Caudal":"vertiente del monte Johannesburg","Superficie":"751 m","Dato":"751 m · Estados Unidos","Description":"Cascada de 751 m de altura total en Estados Unidos (Washington, North Cascades). Caudal: vertiente del monte Johannesburg. Cae por la empinada cara norte del monte Johannesburg, en el corazón del parque nacional North Cascades."},"geometry":{"type":"Point","coordinates":[-121.0921,48.4648]}},{"type":"Feature","properties":{"_manaName":"Cascadas de Yosemite","name":"Cascadas de Yosemite","_manaColor":"#97bde2","_manaFillOpacity":0.9,"_manaWeight":1.2,"_manaBorderColor":"#ffffff","_manaGeometryType":"point","_manaGroupName":"Cascadas naturales por altura total","_manaGroupId":1,"markerType":"emoji_water","_manaMarkerType":"emoji_water","_manaEmojiSize":46,"_manaLabelStyle":{"enabled":true,"field":"_manaName","fontFamily":"monospace","fontSize":10,"fontWeight":"600","color":"#0f172a","haloWidth":3,"haloColor":"#ffffff","opacity":0.9,"placement":"auto"},"Altura (m)":739,"País":"Estados Unidos","Región":"California, valle de Yosemite","Caudal":"río Yosemite","Superficie":"739 m","Dato":"739 m · Estados Unidos","Description":"Cascada de 739 m de altura total en Estados Unidos (California, valle de Yosemite). Caudal: río Yosemite. Tres tramos que suman 739 metros; el salto superior cae 436 metros. Solo fluye entre marzo y mayo, y en invierno el hielo la convierte en una aguja de escarcha."},"geometry":{"type":"Point","coordinates":[-119.5968,37.7568]}},{"type":"Feature","properties":{"_manaName":"Cascadas de Trou de Fer","name":"Cascadas de Trou de Fer","_manaColor":"#97bde2","_manaFillOpacity":0.9,"_manaWeight":1.2,"_manaBorderColor":"#ffffff","_manaGeometryType":"point","_manaGroupName":"Cascadas naturales por altura total","_manaGroupId":1,"markerType":"emoji_water","_manaMarkerType":"emoji_water","_manaEmojiSize":45,"_manaLabelStyle":{"enabled":true,"field":"_manaName","fontFamily":"monospace","fontSize":10,"fontWeight":"600","color":"#0f172a","haloWidth":3,"haloColor":"#ffffff","opacity":0.9,"placement":"auto"},"Altura (m)":725,"País":"Francia","Región":"Reunión, circo de Salazes","Caudal":"ríos del circo","Superficie":"725 m","Dato":"725 m · Francia","Description":"Cascada de 725 m de altura total en Francia (Reunión, circo de Salazes). Caudal: ríos del circo. Un conjunto de cataratas de hasta 725 metros escondidas en uno de los circos volcánicos más grandes de Reunión."},"geometry":{"type":"Point","coordinates":[55.5569,-21.0403]}},{"type":"Feature","properties":{"_manaName":"Cascada Kjeragfossen","name":"Cascada Kjeragfossen","_manaColor":"#97bde2","_manaFillOpacity":0.9,"_manaWeight":1.2,"_manaBorderColor":"#ffffff","_manaGeometryType":"point","_manaGroupName":"Cascadas naturales por altura total","_manaGroupId":1,"markerType":"emoji_water","_manaMarkerType":"emoji_water","_manaEmojiSize":44,"_manaLabelStyle":{"enabled":true,"field":"_manaName","fontFamily":"monospace","fontSize":10,"fontWeight":"600","color":"#0f172a","haloWidth":3,"haloColor":"#ffffff","opacity":0.9,"placement":"auto"},"Altura (m)":715,"País":"Noruega","Región":"Rogaland, fiordo Lysefjord","Caudal":"lago Kjerag","Superficie":"715 m","Dato":"715 m · Noruega","Description":"Cascada de 715 m de altura total en Noruega (Rogaland, fiordo Lysefjord). Caudal: lago Kjerag. Desciende junto al célebre peño Kjeragbolten, sobre el fiordo Lysefjord."},"geometry":{"type":"Point","coordinates":[6.5841,59.0347]}},{"type":"Feature","properties":{"_manaName":"Salto Kukenán","name":"Salto Kukenán","_manaColor":"#97bde2","_manaFillOpacity":0.9,"_manaWeight":1.2,"_manaBorderColor":"#ffffff","_manaGeometryType":"point","_manaGroupName":"Cascadas naturales por altura total","_manaGroupId":1,"markerType":"emoji_water","_manaMarkerType":"emoji_water","_manaEmojiSize":40,"_manaLabelStyle":{"enabled":true,"field":"_manaName","fontFamily":"monospace","fontSize":10,"fontWeight":"600","color":"#0f172a","haloWidth":3,"haloColor":"#ffffff","opacity":0.9,"placement":"auto"},"Altura (m)":674,"País":"Venezuela","Región":"Bolívar, tepui Kukenán","Caudal":"río Kukenán","Superficie":"674 m","Dato":"674 m · Venezuela","Description":"Cascada de 674 m de altura total en Venezuela (Bolívar, tepui Kukenán). Caudal: río Kukenán. El vecino silencioso del Salto Ángel: cae del auyantepuy Kukenán y apenas recibe visitas."},"geometry":{"type":"Point","coordinates":[-61.9333,5.5167]}},{"type":"Feature","properties":{"_manaName":"Salto Yutajé","name":"Salto Yutajé","_manaColor":"#97bde2","_manaFillOpacity":0.9,"_manaWeight":1.2,"_manaBorderColor":"#ffffff","_manaGeometryType":"point","_manaGroupName":"Cascadas naturales por altura total","_manaGroupId":1,"markerType":"emoji_water","_manaMarkerType":"emoji_water","_manaEmojiSize":40,"_manaLabelStyle":{"enabled":true,"field":"_manaName","fontFamily":"monospace","fontSize":10,"fontWeight":"600","color":"#0f172a","haloWidth":3,"haloColor":"#ffffff","opacity":0.9,"placement":"auto"},"Altura (m)":671,"País":"Venezuela","Región":"Amazonas, Manapiare","Caudal":"río Yutajé","Superficie":"671 m","Dato":"671 m · Venezuela","Description":"Cascada de 671 m de altura total en Venezuela (Amazonas, Manapiare). Caudal: río Yutajé. En plena selva del Amazonas venezolano, uno de los saltos más altos del sistema de los tepuyes."},"geometry":{"type":"Point","coordinates":[-66.1458,5.7175]}},{"type":"Feature","properties":{"_manaName":"Cascadas Sutherland","name":"Cascadas Sutherland","_manaColor":"#97bde2","_manaFillOpacity":0.9,"_manaWeight":1.2,"_manaBorderColor":"#ffffff","_manaGeometryType":"point","_manaGroupName":"Cascadas naturales por altura total","_manaGroupId":1,"markerType":"emoji_water","_manaMarkerType":"emoji_water","_manaEmojiSize":32,"_manaLabelStyle":{"enabled":true,"field":"_manaName","fontFamily":"monospace","fontSize":10,"fontWeight":"600","color":"#0f172a","haloWidth":3,"haloColor":"#ffffff","opacity":0.9,"placement":"auto"},"Altura (m)":580,"País":"Nueva Zelanda","Región":"Southland, fiordland","Caudal":"lago Quill","Superficie":"580 m","Dato":"580 m · Nueva Zelanda","Description":"Cascada de 580 m de altura total en Nueva Zelanda (Southland, fiordland). Caudal: lago Quill. Tres saltos que suman 580 metros, alimentados por el lago Quill, en el fiordland de Nueva Zelanda."},"geometry":{"type":"Point","coordinates":[167.7303,-44.8003]}},{"type":"Feature","properties":{"_manaName":"Cascada del Ventisquero Colgante","name":"Cascada del Ventisquero Colgante","_manaColor":"#c9dbed","_manaFillOpacity":0.9,"_manaWeight":1.2,"_manaBorderColor":"#ffffff","_manaGeometryType":"point","_manaGroupName":"Cascadas naturales por altura total","_manaGroupId":1,"markerType":"emoji_water","_manaMarkerType":"emoji_water","_manaEmojiSize":30,"_manaLabelStyle":{"enabled":true,"field":"_manaName","fontFamily":"monospace","fontSize":10,"fontWeight":"600","color":"#0f172a","haloWidth":3,"haloColor":"#ffffff","opacity":0.9,"placement":"auto"},"Altura (m)":549,"País":"Chile","Región":"Aysén, parque nacional Queulat","Caudal":"glaciar Ventisquero Colgante","Superficie":"549 m","Dato":"549 m · Chile","Description":"Cascada de 549 m de altura total en Chile (Aysén, parque nacional Queulat). Caudal: glaciar Ventisquero Colgante. La cascada más alta de Chile: el deshielo del glaciar colgante de Queulat cae 549 metros desde el hielo."},"geometry":{"type":"Point","coordinates":[-72.4962,-44.4303]}},{"type":"Feature","properties":{"_manaName":"Cascada Hannoki","name":"Cascada Hannoki","_manaColor":"#c9dbed","_manaFillOpacity":0.9,"_manaWeight":1.2,"_manaBorderColor":"#ffffff","_manaGeometryType":"point","_manaGroupName":"Cascadas naturales por altura total","_manaGroupId":1,"markerType":"emoji_water","_manaMarkerType":"emoji_water","_manaEmojiSize":26,"_manaLabelStyle":{"enabled":true,"field":"_manaName","fontFamily":"monospace","fontSize":10,"fontWeight":"600","color":"#0f172a","haloWidth":3,"haloColor":"#ffffff","opacity":0.9,"placement":"auto"},"Altura (m)":497,"País":"Japón","Región":"Toyama, macizo de Tateyama","Caudal":"deshielos del Tateyama","Superficie":"497 m","Dato":"497 m · Japón","Description":"Cascada de 497 m de altura total en Japón (Toyama, macizo de Tateyama). Caudal: deshielos del Tateyama. Solo fluye de abril a julio, cuando la nieve del Tateyama se derrite; es la gemela mayor de la vecina Shōmyō."},"geometry":{"type":"Point","coordinates":[137.5233,36.5753]}},{"type":"Feature","properties":{"_manaName":"Catarata Kunchikal","name":"Catarata Kunchikal","_manaColor":"#c9dbed","_manaFillOpacity":0.9,"_manaWeight":1.2,"_manaBorderColor":"#ffffff","_manaGeometryType":"point","_manaGroupName":"Cascadas naturales por altura total","_manaGroupId":1,"markerType":"emoji_water","_manaMarkerType":"emoji_water","_manaEmojiSize":22,"_manaLabelStyle":{"enabled":true,"field":"_manaName","fontFamily":"monospace","fontSize":10,"fontWeight":"600","color":"#0f172a","haloWidth":3,"haloColor":"#ffffff","opacity":0.9,"placement":"auto"},"Altura (m)":455,"País":"India","Región":"Karnataka, Shimoga","Caudal":"río Varahi","Superficie":"455 m","Dato":"455 m · India","Description":"Cascada de 455 m de altura total en India (Karnataka, Shimoga). Caudal: río Varahi. La cascada más alta de India, en las colinas del oeste de Karnataka."},"geometry":{"type":"Point","coordinates":[75.0181,13.6947]}}]}